STARLINK-37244          
1 68529U 26068X   26112.65356784  .00242940  00000+0  11957-2 0  9993
2 68529  53.1580 288.8256 0001603  30.2809 329.8306 15.80952165  3629
STARLINK-36285          
1 68530U 26068Y   26112.58884097  .00233915  00000+0  11521-2 0  9999
2 68530  53.1572 289.1312 0001328 108.7512 251.3655 15.80961674  3615
STARLINK-36294          
1 68531U 26068Z   26113.25002315  .00065434  00000+0  33323-3 0  9994
2 68531  53.1576 285.8082 0000957 105.9582  63.4909 15.80828439  4920
STARLINK-36249          
1 68532U 26068AA  26112.64981465  .00181569  00000+0  90185-3 0  9996
2 68532  53.1576 288.7988 0000887  91.8615 268.2509 15.80930374  3629
STARLINK-36252          
1 68533U 26068AB  26112.65056837  .00310546  00000+0  15091-2 0  9995
2 68533  53.1571 288.8030 0002735  41.5650 318.5580 15.81043676  3628
STARLINK-36299          
1 68534U 26068AC  26112.64906619  .00077956  00000+0  39471-3 0  9991
2 68534  53.1574 288.7934 0000729  82.7993 277.3113 15.80885710  3628
STARLINK-37234          
1 68535U 26068AD  26112.64756581  .00157560  00000+0  78628-3 0  9990
2 68535  53.1572 288.7830 0000739 113.7490 246.3610 15.80901861  3624
STARLINK-37173          
1 68536U 26068AE  26112.64831926  .00336388  00000+0  16410-2 0  9995
2 68536  53.1579 288.7892 0001350  48.0008 312.1130 15.80889720  3623
SWC-1                   
1 68540U 26069C   26107.51011483 -.00000351  00000+0  00000+0 0  9993
2 68540  28.3533 357.7706 8357664  80.9928 279.0715  1.01840683   168
STARLINK-37326          
1 68542U 26070A   26112.50649416  .00175179  00000+0  87023-3 0  9999
2 68542  53.1573 164.7944 0001377  23.8610 336.2476 15.80946562  3183
STARLINK-36308          
1 68543U 26070B   26112.56897101  .00095253  00000+0  48254-3 0  9999
2 68543  53.1572 164.4721 0000954  58.2993 301.8122 15.80795827  3192
STARLINK-37263          
1 68544U 26070C   26112.56745844  .00296407  00000+0  14466-2 0  9997
2 68544  53.1573 164.4622 0002195  33.7328 326.3834 15.80988197  3199
STARLINK-37289          
1 68545U 26070D   26112.56821735  .00094830  00000+0  47852-3 0  9994
2 68545  53.1572 164.4671 0002161  60.5350 299.5888 15.80881356  3198
STARLINK-37290          
1 68546U 26070E   26112.56669089  .00154342  00000+0  76745-3 0  9995
2 68546  53.1574 164.4567 0001219  95.9264 264.1898 15.80990475  3196
STARLINK-37245          
1 68547U 26070F   26112.56520775  .00148361  00000+0  74093-3 0  9992
2 68547  53.1574 164.4468 0001742  54.4775 305.6410 15.80914411  3192
STARLINK-37145          
1 68548U 26070G   26112.56594691  .00180906  00000+0  89851-3 0  9990
2 68548  53.1576 164.4520 0001072  92.4826 267.6319 15.80933597  3190
STARLINK-36204          
1 68549U 26070H   26112.56445269  .00058532  00000+0  29776-3 0  9996
2 68549  53.1575 164.4418 0001028  94.2228 265.8912 15.80896545  3193
