[{"OBJECT_NAME":"STARLINK-37244","OBJECT_ID":"2026-068X","EPOCH":"2026-04-22T15:41:08.261376","MEAN_MOTION":15.80952165,"ECCENTRICITY":0.0001603,"INCLINATION":53.158,"RA_OF_ASC_NODE":288.8256,"ARG_OF_PERICENTER":30.2809,"MEAN_ANOMALY":329.8306,"EPHEMERIS_TYPE":0,"CLASSIFICATION_TYPE":"U","NORAD_CAT_ID":68529,"ELEMENT_SET_NO":999,"REV_AT_EPOCH":362,"BSTAR":0.0011957156,"MEAN_MOTION_DOT":0.0024294,"MEAN_MOTION_DDOT":0},{"OBJECT_NAME":"STARLINK-36285","OBJECT_ID":"2026-068Y","EPOCH":"2026-04-22T14:07:55.859808","MEAN_MOTION":15.80961674,"ECCENTRICITY":0.0001328,"INCLINATION":53.1572,"RA_OF_ASC_NODE":289.1312,"ARG_OF_PERICENTER":108.7512,"MEAN_ANOMALY":251.3655,"EPHEMERIS_TYPE":0,"CLASSIFICATION_TYPE":"U","NORAD_CAT_ID":68530,"ELEMENT_SET_NO":999,"REV_AT_EPOCH":361,"BSTAR":0.0011521,"MEAN_MOTION_DOT":0.00233915,"MEAN_MOTION_DDOT":0},{"OBJECT_NAME":"STARLINK-36294","OBJECT_ID":"2026-068Z","EPOCH":"2026-04-23T06:00:02.000160","MEAN_MOTION":15.80828439,"ECCENTRICITY":9.575e-5,"INCLINATION":53.1576,"RA_OF_ASC_NODE":285.8082,"ARG_OF_PERICENTER":105.9582,"MEAN_ANOMALY":63.4909,"EPHEMERIS_TYPE":0,"CLASSIFICATION_TYPE":"U","NORAD_CAT_ID":68531,"ELEMENT_SET_NO":999,"REV_AT_EPOCH":492,"BSTAR":0.00033322847,"MEAN_MOTION_DOT":0.00065434,"MEAN_MOTION_DDOT":0},{"OBJECT_NAME":"STARLINK-36249","OBJECT_ID":"2026-068AA","EPOCH":"2026-04-22T15:35:43.985760","MEAN_MOTION":15.80930374,"ECCENTRICITY":8.877e-5,"INCLINATION":53.1576,"RA_OF_ASC_NODE":288.7988,"ARG_OF_PERICENTER":91.8615,"MEAN_ANOMALY":268.2509,"EPHEMERIS_TYPE":0,"CLASSIFICATION_TYPE":"U","NORAD_CAT_ID":68532,"ELEMENT_SET_NO":999,"REV_AT_EPOCH":362,"BSTAR":0.00090185495,"MEAN_MOTION_DOT":0.00181569,"MEAN_MOTION_DDOT":0},{"OBJECT_NAME":"STARLINK-36252","OBJECT_ID":"2026-068AB","EPOCH":"2026-04-22T15:36:49.107168","MEAN_MOTION":15.81043676,"ECCENTRICITY":0.00027351,"INCLINATION":53.1571,"RA_OF_ASC_NODE":288.803,"ARG_OF_PERICENTER":41.565,"MEAN_ANOMALY":318.558,"EPHEMERIS_TYPE":0,"CLASSIFICATION_TYPE":"U","NORAD_CAT_ID":68533,"ELEMENT_SET_NO":999,"REV_AT_EPOCH":362,"BSTAR":0.0015090546,"MEAN_MOTION_DOT":0.00310546,"MEAN_MOTION_DDOT":0},{"OBJECT_NAME":"STARLINK-36299","OBJECT_ID":"2026-068AC","EPOCH":"2026-04-22T15:34:39.318816","MEAN_MOTION":15.8088571,"ECCENTRICITY":7.295e-5,"INCLINATION":53.1574,"RA_OF_ASC_NODE":288.7934,"ARG_OF_PERICENTER":82.7993,"MEAN_ANOMALY":277.3113,"EPHEMERIS_TYPE":0,"CLASSIFICATION_TYPE":"U","NORAD_CAT_ID":68534,"ELEMENT_SET_NO":999,"REV_AT_EPOCH":362,"BSTAR":0.00039471402,"MEAN_MOTION_DOT":0.00077956,"MEAN_MOTION_DDOT":0},{"OBJECT_NAME":"STARLINK-37234","OBJECT_ID":"2026-068AD","EPOCH":"2026-04-22T15:32:29.685984","MEAN_MOTION":15.80901861,"ECCENTRICITY":7.391e-5,"INCLINATION":53.1572,"RA_OF_ASC_NODE":288.783,"ARG_OF_PERICENTER":113.749,"MEAN_ANOMALY":246.361,"EPHEMERIS_TYPE":0,"CLASSIFICATION_TYPE":"U","NORAD_CAT_ID":68535,"ELEMENT_SET_NO":999,"REV_AT_EPOCH":362,"BSTAR":0.00078628251,"MEAN_MOTION_DOT":0.0015756,"MEAN_MOTION_DDOT":0},{"OBJECT_NAME":"STARLINK-37173","OBJECT_ID":"2026-068AE","EPOCH":"2026-04-22T15:33:34.784064","MEAN_MOTION":15.8088972,"ECCENTRICITY":0.00013506,"INCLINATION":53.1579,"RA_OF_ASC_NODE":288.7892,"ARG_OF_PERICENTER":48.0008,"MEAN_ANOMALY":312.113,"EPHEMERIS_TYPE":0,"CLASSIFICATION_TYPE":"U","NORAD_CAT_ID":68536,"ELEMENT_SET_NO":999,"REV_AT_EPOCH":362,"BSTAR":0.0016410494,"MEAN_MOTION_DOT":0.00336388,"MEAN_MOTION_DDOT":0},{"OBJECT_NAME":"SWC-1","OBJECT_ID":"2026-069C","EPOCH":"2026-04-17T12:14:33.921312","MEAN_MOTION":1.01840683,"ECCENTRICITY":0.8357664,"INCLINATION":28.3533,"RA_OF_ASC_NODE":357.7706,"ARG_OF_PERICENTER":80.9928,"MEAN_ANOMALY":279.0715,"EPHEMERIS_TYPE":0,"CLASSIFICATION_TYPE":"U","NORAD_CAT_ID":68540,"ELEMENT_SET_NO":999,"REV_AT_EPOCH":16,"BSTAR":0,"MEAN_MOTION_DOT":-3.51e-6,"MEAN_MOTION_DDOT":0},{"OBJECT_NAME":"STARLINK-37326","OBJECT_ID":"2026-070A","EPOCH":"2026-04-22T12:09:21.095424","MEAN_MOTION":15.80946562,"ECCENTRICITY":0.0001377,"INCLINATION":53.1573,"RA_OF_ASC_NODE":164.7944,"ARG_OF_PERICENTER":23.861,"MEAN_ANOMALY":336.2476,"EPHEMERIS_TYPE":0,"CLASSIFICATION_TYPE":"U","NORAD_CAT_ID":68542,"ELEMENT_SET_NO":999,"REV_AT_EPOCH":318,"BSTAR":0.00087023,"MEAN_MOTION_DOT":0.00175179,"MEAN_MOTION_DDOT":0},{"OBJECT_NAME":"STARLINK-36308","OBJECT_ID":"2026-070B","EPOCH":"2026-04-22T13:39:19.095264","MEAN_MOTION":15.80795827,"ECCENTRICITY":9.54e-5,"INCLINATION":53.1572,"RA_OF_ASC_NODE":164.4721,"ARG_OF_PERICENTER":58.2993,"MEAN_ANOMALY":301.8122,"EPHEMERIS_TYPE":0,"CLASSIFICATION_TYPE":"U","NORAD_CAT_ID":68543,"ELEMENT_SET_NO":999,"REV_AT_EPOCH":319,"BSTAR":0.00048254,"MEAN_MOTION_DOT":0.00095253,"MEAN_MOTION_DDOT":0},{"OBJECT_NAME":"STARLINK-37263","OBJECT_ID":"2026-070C","EPOCH":"2026-04-22T13:37:08.409216","MEAN_MOTION":15.80988197,"ECCENTRICITY":0.0002195,"INCLINATION":53.1573,"RA_OF_ASC_NODE":164.4622,"ARG_OF_PERICENTER":33.7328,"MEAN_ANOMALY":326.3834,"EPHEMERIS_TYPE":0,"CLASSIFICATION_TYPE":"U","NORAD_CAT_ID":68544,"ELEMENT_SET_NO":999,"REV_AT_EPOCH":319,"BSTAR":0.0014466,"MEAN_MOTION_DOT":0.00296407,"MEAN_MOTION_DDOT":0},{"OBJECT_NAME":"STARLINK-37289","OBJECT_ID":"2026-070D","EPOCH":"2026-04-22T13:38:13.979040","MEAN_MOTION":15.80881356,"ECCENTRICITY":0.0002161,"INCLINATION":53.1572,"RA_OF_ASC_NODE":164.4671,"ARG_OF_PERICENTER":60.535,"MEAN_ANOMALY":299.5888,"EPHEMERIS_TYPE":0,"CLASSIFICATION_TYPE":"U","NORAD_CAT_ID":68545,"ELEMENT_SET_NO":999,"REV_AT_EPOCH":319,"BSTAR":0.00047852,"MEAN_MOTION_DOT":0.0009483,"MEAN_MOTION_DDOT":0},{"OBJECT_NAME":"STARLINK-37290","OBJECT_ID":"2026-070E","EPOCH":"2026-04-22T13:36:02.092896","MEAN_MOTION":15.80990475,"ECCENTRICITY":0.0001219,"INCLINATION":53.1574,"RA_OF_ASC_NODE":164.4567,"ARG_OF_PERICENTER":95.9264,"MEAN_ANOMALY":264.1898,"EPHEMERIS_TYPE":0,"CLASSIFICATION_TYPE":"U","NORAD_CAT_ID":68546,"ELEMENT_SET_NO":999,"REV_AT_EPOCH":319,"BSTAR":0.00076745,"MEAN_MOTION_DOT":0.00154342,"MEAN_MOTION_DDOT":0},{"OBJECT_NAME":"STARLINK-37245","OBJECT_ID":"2026-070F","EPOCH":"2026-04-22T13:33:53.949600","MEAN_MOTION":15.80914411,"ECCENTRICITY":0.0001742,"INCLINATION":53.1574,"RA_OF_ASC_NODE":164.4468,"ARG_OF_PERICENTER":54.4775,"MEAN_ANOMALY":305.641,"EPHEMERIS_TYPE":0,"CLASSIFICATION_TYPE":"U","NORAD_CAT_ID":68547,"ELEMENT_SET_NO":999,"REV_AT_EPOCH":319,"BSTAR":0.00074093,"MEAN_MOTION_DOT":0.00148361,"MEAN_MOTION_DDOT":0},{"OBJECT_NAME":"STARLINK-37145","OBJECT_ID":"2026-070G","EPOCH":"2026-04-22T13:34:57.813024","MEAN_MOTION":15.80933597,"ECCENTRICITY":0.0001072,"INCLINATION":53.1576,"RA_OF_ASC_NODE":164.452,"ARG_OF_PERICENTER":92.4826,"MEAN_ANOMALY":267.6319,"EPHEMERIS_TYPE":0,"CLASSIFICATION_TYPE":"U","NORAD_CAT_ID":68548,"ELEMENT_SET_NO":999,"REV_AT_EPOCH":319,"BSTAR":0.00089851,"MEAN_MOTION_DOT":0.00180906,"MEAN_MOTION_DDOT":0},{"OBJECT_NAME":"STARLINK-36204","OBJECT_ID":"2026-070H","EPOCH":"2026-04-22T13:32:48.712416","MEAN_MOTION":15.80896545,"ECCENTRICITY":0.0001028,"INCLINATION":53.1575,"RA_OF_ASC_NODE":164.4418,"ARG_OF_PERICENTER":94.2228,"MEAN_ANOMALY":265.8912,"EPHEMERIS_TYPE":0,"CLASSIFICATION_TYPE":"U","NORAD_CAT_ID":68549,"ELEMENT_SET_NO":999,"REV_AT_EPOCH":319,"BSTAR":0.00029776,"MEAN_MOTION_DOT":0.00058532,"MEAN_MOTION_DDOT":0}]
